KAITUO 1B               
1 40912U 15049P   17335.06001874  .00001977  00000-0  99666-4 0  9994
2 40912  97.4514 340.2709 0015230 348.3373  47.3854 15.18242935121606
TIANWANG 1C (TW-1C)     
1 40926U 15051B   17335.06560970  .00009623  00000-0  19941-3 0  9992
2 40926  97.2113  13.4745 0008930 286.2732 127.8230 15.45912428122672
TIANWANG 1B (TW-1B)     
1 40927U 15051C   17335.12995258  .00009464  00000-0  20399-3 0  9993
2 40927  97.2199  13.4770 0009012 299.1140 125.7681 15.44755073122614
TIANWANG 1A (TW-1A)     
1 40928U 15051D   17335.16422561  .00003373  00000-0  93694-4 0  9992
2 40928  97.2103   7.9522 0011285 325.1939  77.6489 15.37511344122348
LAPAN-A2 (IO-86)        
1 40931U 15052B   17335.08378211  .00000791  00000-0  21161-4 0  9991
2 40931   5.9959 122.6878 0013189  83.4740 276.7123 14.76558065117675
LQSAT                   
1 40958U 15057A   17335.15298676  .00000075  00000-0  19505-4 0  9993
2 40958  97.9631  47.4215 0016732 249.7568 110.1850 14.73004133115690
CHUBUSAT-2              
1 41338U 16012B   17334.86890449  .00000442  00000-0  27919-4 0  9997
2 41338  31.0025 133.5542 0014056 269.8105  90.0919 14.99879116 98035
CHUBUSAT-3              
1 41339U 16012C   17334.84134976  .00000398  00000-0  24303-4 0  9996
2 41339  31.0078 132.6170 0014043 276.0118  83.8915 15.00073597 98017
OUFTI-1                 
1 41458U 16025C   17335.08845631  .00002707  00000-0  14496-3 0  9993
2 41458  98.1647  22.1380 0172934  91.5818 270.5268 15.03994739 87659
E-ST@R-II               
1 41459U 16025D   17335.06327363  .00001875  00000-0  10180-3 0  9990
2 41459  98.1675  22.0235 0174715  92.1560 269.9688 15.03784467 87641
AAUSAT 4                
1 41460U 16025E   17335.08106971  .00003568  00000-0  18920-3 0  9995
2 41460  98.1602  22.2750 0165774  89.5018 272.5215 15.04965873 87683
NUSAT 1 (LO-87)         
1 41557U 16033B   17335.20700450  .00002209  00000-0  83981-4 0  9998
2 41557  97.4529  54.6867 0015231 133.4861 226.7647 15.27771737 83927
BEESAT-4                
1 41619U 16040W   17334.88989151  .00002207  00000-0  10106-3 0  9991
2 41619  97.4435  35.5518 0011331 197.7236 162.3607 15.21508254 67939
PRATHAM                 
1 41783U 16059A   17334.71501212  .00000094  00000-0  27766-4 0  9996
2 41783  98.1469  34.1821 0033514   0.9182 359.2076 14.62883489 62943
ALSAT 1N                
1 41789U 16059G   17335.18037056  .00000143  00000-0  36340-4 0  9997
2 41789  98.1471  35.4684 0028205 353.4837   6.6017 14.64106063 63045
NAYIF-1 (EO-88)         
1 42017U 17008BX  17334.88730802  .00002311  00000-0  99020-4 0  9995
2 42017  97.4762  35.9087 0006582  11.5756 348.5631 15.23782179 43865
LILACSAT-1              
1 42725U 98067ME  17335.09782286  .00023293  00000-0  27514-3 0  9992
2 42725  51.6384 281.8468 0004665 192.0060 168.0824 15.61192426 29495
MAX VALIER SAT          
1 42778U 17036P   17335.16952545  .00001507  00000-0  71230-4 0  9991
2 42778  97.4320  32.9058 0013888  48.6259 311.6169 15.20869998 24408
